ONEWEB-0456             
1 51646U 22012AA  23324.45851585 -.00000233  00000+0 -70277-3 0  9999
2 51646  87.8927 222.8849 0001245  73.2274 286.8990 13.10377638 87564
ONEWEB-0457             
1 51647U 22012AB  23324.43576828 -.00000384  00000+0 -11361-2 0  9997
2 51647  87.8927 222.8936 0002053  73.3284 286.8069 13.10369031 86274
ONEWEB-0458             
1 51648U 22012AC  23324.45688297 -.00000309  00000+0 -92214-3 0  9998
2 51648  87.8933 222.9024 0001645  63.6849 296.4448 13.10369987 87534
ONEWEB-0461             
1 51649U 22012AD  23324.59341825 -.00000071  00000+0 -21562-3 0  9991
2 51649  87.9226 192.6383 0001788  76.8350 283.2981 13.17647141 90159
ONEWEB-0463             
1 51650U 22012AE  23324.65245716  .00000009  00000+0 -99209-5 0  9997
2 51650  87.9234 192.6635 0001698  79.2080 280.9243 13.17650560 91242
ONEWEB-0464             
1 51651U 22012AF  23324.22455717 -.00000317  00000+0 -94382-3 0  9993
2 51651  87.8935 222.9370 0001213  67.9222 292.2034 13.10371545 86220
ONEWEB-0468             
1 51652U 22012AG  23324.76556668 -.00000243  00000+0 -73172-3 0  9992
2 51652  87.8933 222.8230 0001603  67.7811 292.3486 13.10377109 87560
ONEWEB-0473             
1 51653U 22012AH  23324.44551051 -.00000735  00000+0 -21434-2 0  9998
2 51653  87.8931 222.8899 0001546  66.0017 294.1272 13.10369614 87538
